start=new Date('2022-07-28T00:00:00.000Z').valueOf();
sats=[{"ARG_OF_PERICENTER":"61.6537","RCS_SIZE":"LARGE","MEAN_MOTION":"15.08843551","TLE_LINE1":"1 49438U 21104AG  22208.79840725  .00002975  00000-0  20494-3 0  9997","PERIOD":"95.437","MEAN_MOTION_DOT":"0.00002975","EPOCH":"2022-07-27T19:09:42.386400","OBJECT_ID":"2021-104AG","SITE":"AFETR","DECAY_DATE":null,"MEAN_ELEMENT_THEORY":"SGP4","BSTAR":"0.00020494000000","REV_AT_EPOCH":"3950","REF_FRAME":"TEME","ELEMENT_SET_NO":"999","SEMIMAJOR_AXIS":"6917.870","RA_OF_ASC_NODE":"18.8393","GP_ID":"209001338","NORAD_CAT_ID":"49438","PERIAPSIS":"538.651","OBJECT_TYPE":"PAYLOAD","COUNTRY_CODE":"US","CLASSIFICATION_TYPE":"U","OBJECT_NAME":"STARLINK-3044","APOAPSIS":"540.818","INCLINATION":"53.2168","FILE":"3523323","ECCENTRICITY":"0.00015660","TLE_LINE2":"2 49438  53.2168  18.8393 0001566  61.6537 298.4613 15.08843551 39503","MEAN_MOTION_DDOT":"0.0000000000000","TIME_SYSTEM":"UTC","MEAN_ANOMALY":"298.4613","EPHEMERIS_TYPE":"0","CENTER_NAME":"EARTH","LAUNCH_DATE":"2021-11-13"},{"TLE_LINE1":"1 49439U 21104AH  22208.78001525  .00002629  00000-0  18323-3 0  9998","PERIOD":"95.437","MEAN_MOTION":"15.08840869","RCS_SIZE":"LARGE","ARG_OF_PERICENTER":"53.2418","ELEMENT_SET_NO":"999","REF_FRAME":"TEME","RA_OF_ASC_NODE":"18.9245","SEMIMAJOR_AXIS":"6917.878","GP_ID":"209000088","NORAD_CAT_ID":"49439","MEAN_MOTION_DOT":"0.00002629","EPOCH":"2022-07-27T18:43:13.317600","OBJECT_ID":"2021-104AH","SITE":"AFETR","DECAY_DATE":null,"REV_AT_EPOCH":"3950","MEAN_ELEMENT_THEORY":"SGP4","BSTAR":"0.00018323000000","APOAPSIS":"540.884","INCLINATION":"53.2188","FILE":"3523323","OBJECT_TYPE":"PAYLOAD","COUNTRY_CODE":"US","CLASSIFICATION_TYPE":"U","PERIAPSIS":"538.601","OBJECT_NAME":"STARLINK-3108","CENTER_NAME":"EARTH","LAUNCH_DATE":"2021-11-13","TLE_LINE2":"2 49439  53.2188  18.9245 0001650  53.2418 306.8726 15.08840869 39500","ECCENTRICITY":"0.00016500","TIME_SYSTEM":"UTC","MEAN_MOTION_DDOT":"0.0000000000000","MEAN_ANOMALY":"306.8726","EPHEMERIS_TYPE":"0"},{"TLE_LINE1":"1 49440U 21104AJ  22208.79473339  .00002409  00000-0  16942-3 0  9998","PERIOD":"95.438","ARG_OF_PERICENTER":"51.6039","RCS_SIZE":"LARGE","MEAN_MOTION":"15.08840573","SEMIMAJOR_AXIS":"6917.879","RA_OF_ASC_NODE":"18.8648","REF_FRAME":"TEME","ELEMENT_SET_NO":"999","GP_ID":"208999846","NORAD_CAT_ID":"49440","SITE":"AFETR","MEAN_MOTION_DOT":"0.00002409","EPOCH":"2022-07-27T19:04:24.964896","OBJECT_ID":"2021-104AJ","BSTAR":"0.00016942000000","MEAN_ELEMENT_THEORY":"SGP4","REV_AT_EPOCH":"3950","DECAY_DATE":null,"INCLINATION":"53.2180","APOAPSIS":"540.948","FILE":"3523323","PERIAPSIS":"538.539","COUNTRY_CODE":"US","OBJECT_TYPE":"PAYLOAD","CLASSIFICATION_TYPE":"U","OBJECT_NAME":"STARLINK-3105","LAUNCH_DATE":"2021-11-13","CENTER_NAME":"EARTH","MEAN_MOTION_DDOT":"0.0000000000000","TIME_SYSTEM":"UTC","TLE_LINE2":"2 49440  53.2180  18.8648 0001741  51.6039 308.5110 15.08840573 39500","ECCENTRICITY":"0.00017410","EPHEMERIS_TYPE":"0","MEAN_ANOMALY":"308.5110"},{"RCS_SIZE":"LARGE","MEAN_MOTION":"15.08837747","ARG_OF_PERICENTER":"68.5782","PERIOD":"95.438","TLE_LINE1":"1 49441U 21104AK  22208.77632947  .00000412  00000-0  43967-4 0  9999","REV_AT_EPOCH":"3950","BSTAR":"0.00004396700000","MEAN_ELEMENT_THEORY":"SGP4","DECAY_DATE":null,"SITE":"AFETR","MEAN_MOTION_DOT":"0.00000412","OBJECT_ID":"2021-104AK","EPOCH":"2022-07-27T18:37:54.866208","NORAD_CAT_ID":"49441","GP_ID":"209001090","RA_OF_ASC_NODE":"18.9389","SEMIMAJOR_AXIS":"6917.887","ELEMENT_SET_NO":"999","REF_FRAME":"TEME","OBJECT_NAME":"STARLINK-3128","CLASSIFICATION_TYPE":"U","COUNTRY_CODE":"US","OBJECT_TYPE":"PAYLOAD","PERIAPSIS":"538.732","FILE":"3523323","INCLINATION":"53.2202","APOAPSIS":"540.773","EPHEMERIS_TYPE":"0","MEAN_ANOMALY":"291.5368","TIME_SYSTEM":"UTC","MEAN_MOTION_DDOT":"0.0000000000000","ECCENTRICITY":"0.00014750","TLE_LINE2":"2 49441  53.2202  18.9389 0001475  68.5782 291.5368 15.08837747 39500","LAUNCH_DATE":"2021-11-13","CENTER_NAME":"EARTH"},{"SITE":"AFETR","MEAN_MOTION_DOT":"0.00001086","OBJECT_ID":"2021-104AL","EPOCH":"2022-07-27T18:59:07.285056","MEAN_ELEMENT_THEORY":"SGP4","BSTAR":"0.00008634500000","REV_AT_EPOCH":"3950","DECAY_DATE":null,"SEMIMAJOR_AXIS":"6917.886","RA_OF_ASC_NODE":"18.8718","ELEMENT_SET_NO":"999","REF_FRAME":"TEME","NORAD_CAT_ID":"49442","GP_ID":"209000846","ARG_OF_PERICENTER":"56.5430","RCS_SIZE":"LARGE","MEAN_MOTION":"15.08838321","TLE_LINE1":"1 49442U 21104AL  22208.79105654  .00001086  00000-0  86345-4 0  9997","PERIOD":"95.438","MEAN_MOTION_DDOT":"0.0000000000000","TIME_SYSTEM":"UTC","ECCENTRICITY":"0.00014300","TLE_LINE2":"2 49442  53.2186  18.8718 0001430  56.5430 303.5699 15.08838321 39505","EPHEMERIS_TYPE":"0","MEAN_ANOMALY":"303.5699","LAUNCH_DATE":"2021-11-13","CENTER_NAME":"EARTH","PERIAPSIS":"538.761","OBJECT_TYPE":"PAYLOAD","COUNTRY_CODE":"US","CLASSIFICATION_TYPE":"U","OBJECT_NAME":"STARLINK-3098","INCLINATION":"53.2186","APOAPSIS":"540.740","FILE":"3523323"},{"FILE":"3523323","APOAPSIS":"540.915","INCLINATION":"53.2190","OBJECT_NAME":"STARLINK-3136","COUNTRY_CODE":"US","CLASSIFICATION_TYPE":"U","OBJECT_TYPE":"PAYLOAD","PERIAPSIS":"538.553","CENTER_NAME":"EARTH","LAUNCH_DATE":"2021-11-13","MEAN_ANOMALY":"306.0598","EPHEMERIS_TYPE":"0","ECCENTRICITY":"0.00017070","TLE_LINE2":"2 49443  53.2190  18.9599 0001707  54.0552 306.0598 15.08843748 39509","TIME_SYSTEM":"UTC","MEAN_MOTION_DDOT":"0.0000000000000","PERIOD":"95.437","TLE_LINE1":"1 49443U 21104AM  22208.77264694  .00000546  00000-0  52424-4 0  9997","ARG_OF_PERICENTER":"54.0552","RCS_SIZE":"LARGE","MEAN_MOTION":"15.08843748","NORAD_CAT_ID":"49443","GP_ID":"208999596","REF_FRAME":"TEME","ELEMENT_SET_NO":"999","RA_OF_ASC_NODE":"18.9599","SEMIMAJOR_AXIS":"6917.869","DECAY_DATE":null,"REV_AT_EPOCH":"3950","MEAN_ELEMENT_THEORY":"SGP4","BSTAR":"0.00005242400000","MEAN_MOTION_DOT":"0.00000546","OBJECT_ID":"2021-104AM","EPOCH":"2022-07-27T18:32:36.695616","SITE":"AFETR"},{"INCLINATION":"53.2196","APOAPSIS":"540.782","FILE":"3523323","OBJECT_TYPE":"PAYLOAD","COUNTRY_CODE":"US","CLASSIFICATION_TYPE":"U","PERIAPSIS":"538.650","OBJECT_NAME":"STARLINK-3126","LAUNCH_DATE":"2021-11-13","CENTER_NAME":"EARTH","TIME_SYSTEM":"UTC","MEAN_MOTION_DDOT":"0.0000000000000","TLE_LINE2":"2 49444  53.2196  18.8926 0001541  53.3849 306.7285 15.08849662 39507","ECCENTRICITY":"0.00015410","EPHEMERIS_TYPE":"0","MEAN_ANOMALY":"306.7285","TLE_LINE1":"1 49444U 21104AN  22208.78736740  .00002549  00000-0  17812-3 0  9991","PERIOD":"95.437","ARG_OF_PERICENTER":"53.3849","RCS_SIZE":"LARGE","MEAN_MOTION":"15.08849662","RA_OF_ASC_NODE":"18.8926","SEMIMAJOR_AXIS":"6917.851","REF_FRAME":"TEME","ELEMENT_SET_NO":"999","GP_ID":"209000339","NORAD_CAT_ID":"49444","SITE":"AFETR","EPOCH":"2022-07-27T18:53:48.543360","MEAN_MOTION_DOT":"0.00002549","OBJECT_ID":"2021-104AN","REV_AT_EPOCH":"3950","BSTAR":"0.00017812000000","MEAN_ELEMENT_THEORY":"SGP4","DECAY_DATE":null},{"MEAN_MOTION_DOT":"0.00000626","EPOCH":"2022-07-27T19:13:41.211552","OBJECT_ID":"2021-104AP","SITE":"AFETR","DECAY_DATE":null,"REV_AT_EPOCH":"3936","BSTAR":"0.00005743000000","MEAN_ELEMENT_THEORY":"SGP4","ELEMENT_SET_NO":"999","REF_FRAME":"TEME","RA_OF_ASC_NODE":"28.8353","SEMIMAJOR_AXIS":"6917.881","GP_ID":"209000598","NORAD_CAT_ID":"49445","RCS_SIZE":"LARGE","ARG_OF_PERICENTER":"69.4039","MEAN_MOTION":"15.08839839","TLE_LINE1":"1 49445U 21104AP  22208.80117143  .00000626  00000-0  57430-4 0  9990","PERIOD":"95.438","ECCENTRICITY":"0.00017870","TLE_LINE2":"2 49445  53.2173  28.8353 0001787  69.4039 290.7145 15.08839839 39365","TIME_SYSTEM":"UTC","MEAN_MOTION_DDOT":"0.0000000000000","MEAN_ANOMALY":"290.7145","EPHEMERIS_TYPE":"0","CENTER_NAME":"EARTH","LAUNCH_DATE":"2021-11-13","COUNTRY_CODE":"US","OBJECT_TYPE":"PAYLOAD","CLASSIFICATION_TYPE":"U","PERIAPSIS":"538.510","OBJECT_NAME":"STARLINK-3122","APOAPSIS":"540.982","INCLINATION":"53.2173","FILE":"3523323"},{"INCLINATION":"53.2185","APOAPSIS":"540.731","FILE":"3523298","PERIAPSIS":"538.737","COUNTRY_CODE":"US","CLASSIFICATION_TYPE":"U","OBJECT_TYPE":"PAYLOAD","OBJECT_NAME":"STARLINK-3099","LAUNCH_DATE":"2021-11-13","CENTER_NAME":"EARTH","MEAN_MOTION_DDOT":"0.0000000000000","TIME_SYSTEM":"UTC","TLE_LINE2":"2 49446  53.2185  18.6096 0001441  68.1490 291.9655 15.08843718 40580","ECCENTRICITY":"0.00014410","EPHEMERIS_TYPE":"0","MEAN_ANOMALY":"291.9655","TLE_LINE1":"1 49446U 21104AQ  22208.84992619  .00001117  00000-0  88236-4 0  9998","PERIOD":"95.437","ARG_OF_PERICENTER":"68.1490","RCS_SIZE":"LARGE","MEAN_MOTION":"15.08843718","SEMIMAJOR_AXIS":"6917.869","RA_OF_ASC_NODE":"18.6096","ELEMENT_SET_NO":"999","REF_FRAME":"TEME","GP_ID":"208976598","NORAD_CAT_ID":"49446","SITE":"AFETR","EPOCH":"2022-07-27T20:23:53.622816","MEAN_MOTION_DOT":"0.00001117","OBJECT_ID":"2021-104AQ","BSTAR":"0.00008823600000","MEAN_ELEMENT_THEORY":"SGP4","REV_AT_EPOCH":"4058","DECAY_DATE":null},{"ELEMENT_SET_NO":"999","REF_FRAME":"TEME","SEMIMAJOR_AXIS":"6917.873","RA_OF_ASC_NODE":"28.8688","NORAD_CAT_ID":"49447","GP_ID":"209000089","MEAN_MOTION_DOT":"0.00001476","OBJECT_ID":"2021-104AR","EPOCH":"2022-07-27T19:03:05.311872","SITE":"AFETR","DECAY_DATE":null,"BSTAR":"0.00011082000000","MEAN_ELEMENT_THEORY":"SGP4","REV_AT_EPOCH":"3936","TLE_LINE1":"1 49447U 21104AR  22208.79381148  .00001476  00000-0  11082-3 0  9994","PERIOD":"95.437","ARG_OF_PERICENTER":"65.4397","RCS_SIZE":"LARGE","MEAN_MOTION":"15.08842330","CENTER_NAME":"EARTH","LAUNCH_DATE":"2021-11-13","TLE_LINE2":"2 49447  53.2176  28.8688 0001334  65.4397 294.6734 15.08842330 39369","ECCENTRICITY":"0.00013340","MEAN_MOTION_DDOT":"0.0000000000000","TIME_SYSTEM":"UTC","MEAN_ANOMALY":"294.6734","EPHEMERIS_TYPE":"0","APOAPSIS":"540.661","INCLINATION":"53.2176","FILE":"3523323","PERIAPSIS":"538.815","COUNTRY_CODE":"US","CLASSIFICATION_TYPE":"U","OBJECT_TYPE":"PAYLOAD","OBJECT_NAME":"STARLINK-3115"}];
